     3.04           N: GNSS NAV DATA    C: COMPASS          RINEX VERSION / TYPE
JPS2RIN v.2.0.191   JAVAD GNSS          20210625 000626 UTC PGM / RUN BY / DATE
    18                                                      LEAP SECONDS
BDUT -4.6566128731D-09 9.769962617D-15      0  807          TIME SYSTEM CORR
GODS                                    MARKER NAME         COMMENT
40451M128                               MARKER NUMBER       COMMENT
  1130752.3120 -4831349.1180  3994098.9450                  COMMENT
                                                            END OF HEADER
C30 2021 06 24 07 00 00 4.717379342765D-04 1.277200567529D-12 0.000000000000D+00
     1.000000000000D+00-2.560937500000D+01 3.909448558510D-09 1.035227337145D-01
    -1.270789653063D-06 4.959722282365D-04-2.321787178516D-06 5.282616983414D+03
     3.708000000000D+05 2.095475792885D-08 1.645940677796D+00 2.514570951462D-08
     9.649816112203D-01 4.091250000000D+02 6.358107184914D-01-7.277445991979D-09
    -1.235765760318D-10 0.000000000000D+00 8.070000000000D+02
     2.000000000000D+00 0.000000000000D+00-9.800000000000D-09-9.800000000000D-09
     3.708000000000D+05 0.000000000000D+00
C33 2021 06 24 07 00 00-9.382482385263D-04-1.993960552227D-12 0.000000000000D+00
     1.000000000000D+00-2.257812500000D+01 3.694082444790D-09 1.533791281478D+00
    -1.219566911459D-06 5.066177109256D-04 1.027807593346D-05 5.282618274689D+03
     3.708000000000D+05 6.100162863731D-08-2.531305616045D+00-1.117587089539D-08
     9.651268863002D-01 1.580312500000D+02-5.408890331479D-01-6.467055093088D-09
     8.228914195878D-10 0.000000000000D+00 8.070000000000D+02
     2.000000000000D+00 0.000000000000D+00-4.250000000000D-08-4.250000000000D-08
     3.730800000000D+05 0.000000000000D+00
C35 2021 06 24 07 00 00-2.187434583902D-04 1.780531277973D-11 0.000000000000D+00
     1.000000000000D+00-4.370312500000D+01 4.002309569401D-09-1.300681267418D+00
    -2.155546098948D-06 7.133953040466D-04-2.931337803602D-06 5.282618104935D+03
     3.708000000000D+05-2.374872565269D-08 1.648711078908D+00-3.632158041000D-08
     9.631819849901D-01 4.245625000000D+02 4.637437715552D-01-7.418166139253D-09
    -2.057228548969D-10 0.000000000000D+00 8.070000000000D+02
     2.000000000000D+00 0.000000000000D+00-2.800000000000D-09-2.800000000000D-09
     3.735900000000D+05 0.000000000000D+00
C36 2021 06 24 07 00 00-7.288325577974D-04-1.929123527589D-12 0.000000000000D+00
     1.000000000000D+00 5.112500000000D+01 3.994094941515D-09-2.591836369257D+00
     2.582091838121D-06 8.691936964169D-04 1.125549897552D-05 5.282621883392D+03
     3.708000000000D+05 2.887099981308D-08-4.220121651977D-01 7.450580596924D-08
     9.510349738755D-01 1.288593750000D+02-1.643561684804D+00-6.583845672171D-09
    -6.178828801592D-10 0.000000000000D+00 8.070000000000D+02
     2.000000000000D+00 0.000000000000D+00-1.860000000000D-08-1.860000000000D-08
     3.708000000000D+05 0.000000000000D+00
C42 2021 06 24 07 00 00-9.148872923106D-04-1.835864793520D-12 0.000000000000D+00
     1.000000000000D+00-2.125000000000D+01 3.644437519737D-09 3.066210019566D+00
    -1.177191734314D-06 1.404955168255D-03 1.056026667356D-05 5.282620969772D+03
     3.708000000000D+05 6.379559636116D-08-2.526600712044D+00 7.497146725655D-08
     9.639976057068D-01 1.451875000000D+02-1.284816899541D+00-6.476341194178D-09
     9.061091716555D-10 0.000000000000D+00 8.070000000000D+02
     2.000000000000D+00 0.000000000000D+00-3.250000000000D-08-3.250000000000D-08
     3.708000000000D+05 0.000000000000D+00
C45 2021 06 24 07 00 00 4.754356341437D-04 1.005684424626D-11 0.000000000000D+00
     1.000000000000D+00 5.101562500000D+01 3.912305820384D-09 1.988061066815D+00
     2.637039870024D-06 4.188398597762D-04 1.143850386143D-05 5.282624908447D+03
     3.708000000000D+05 1.406297087669D-07-4.212871971256D-01-5.401670932770D-08
     9.549350096076D-01 1.253593750000D+02-7.303641346893D-01-6.595631877399D-09
    -7.325305128362D-10 0.000000000000D+00 8.070000000000D+02
     2.000000000000D+00 0.000000000000D+00-2.720000000000D-08-2.720000000000D-08
     3.708000000000D+05 0.000000000000D+00
C08 2021 06 24 08 00 00-8.969270857051D-04-3.537614645666D-12 0.000000000000D+00
     1.000000000000D+00-9.592343750000D+02 3.117987019532D-10-1.958536089872D+00
    -3.144796937704D-05 5.204228567891D-03 7.424503564835D-06 6.493890724182D+03
     3.744000000000D+05-2.239830791950D-07 2.608654085736D+00-3.208406269550D-07
     1.043960214916D+00 4.998437500000D+01-2.740481860230D+00-1.680069981658D-09
    -4.346609625166D-10 0.000000000000D+00 8.070000000000D+02
     2.000000000000D+00 0.000000000000D+00 1.130000000000D-08-1.000000000000D-09
     3.746100000000D+05 0.000000000000D+00
C14 2021 06 24 08 00 00 8.705069776624D-04-3.753264365969D-11 0.000000000000D+00
     1.000000000000D+00-2.346875000000D+01 3.613007639128D-09 2.478033923785D+00
    -1.237262040377D-06 1.438982435502D-03 1.062219962478D-05 5.282618034363D+03
     3.744000000000D+05 3.911554813385D-08-2.525014260773D+00 7.590278983116D-08
     9.637294089353D-01 1.438281250000D+02-5.826238242780D-01-6.473483932304D-09
     8.950372818954D-10 0.000000000000D+00 8.070000000000D+02
     2.000000000000D+00 0.000000000000D+00 6.900000000000D-09 1.300000000000D-09
     3.744000000000D+05 0.000000000000D+00
C21 2021 06 24 08 00 00-9.350555483252D-04 4.751754545396D-13 0.000000000000D+00
     1.000000000000D+00-1.600000000000D+01 3.608364588583D-09-2.393064154145D+00
    -6.649643182755D-07 7.976859342307D-04 1.098727807403D-05 5.282621803284D+03
     3.744000000000D+05-5.587935447693D-09-2.523555160910D+00 6.379559636116D-08
     9.656956600719D-01 1.404843750000D+02-8.437117150424D-01-6.467412250823D-09
     9.425392605435D-10 0.000000000000D+00 8.070000000000D+02
     2.000000000000D+00 0.000000000000D+00 1.410000000000D-08 1.410000000000D-08
     3.744000000000D+05 0.000000000000D+00
C22 2021 06 24 08 00 00-9.491324890405D-04 1.058708676283D-12 0.000000000000D+00
     1.000000000000D+00-7.796875000000D+00 3.606935957646D-09-2.205950098516D+00
    -4.195608198643D-07 6.772468332201D-04 1.081265509129D-05 5.282623388290D+03
     3.744000000000D+05-3.911554813385D-08-2.523639416214D+00 7.357448339462D-08
     9.657049174175D-01 1.466250000000D+02-2.497577423839D-01-6.458840465202D-09
     9.321816862518D-10 0.000000000000D+00 8.070000000000D+02
     2.000000000000D+00 0.000000000000D+00 1.660000000000D-08 1.660000000000D-08
     3.744300000000D+05 0.000000000000D+00
C24 2021 06 24 08 00 00-9.072597604245D-04-1.739852706351D-11 0.000000000000D+00
     1.000000000000D+00 5.745312500000D+01 3.887661936724D-09 1.209164039679D-01
     2.802815288305D-06 3.846545005217D-04 1.214956864715D-05 5.282624515533D+03
     3.744000000000D+05-2.421438694000D-08-4.197544188564D-01-5.634501576424D-08
     9.496208967792D-01 1.105468750000D+02 8.292114743863D-02-6.543129690472D-09
    -7.671748130532D-10 0.000000000000D+00 8.070000000000D+02
     2.000000000000D+00 0.000000000000D+00 7.000000000000D-09 7.000000000000D-09
     3.744000000000D+05 0.000000000000D+00
C26 2021 06 24 08 00 00 8.882851107046D-04-5.322853269263D-12 0.000000000000D+00
     1.000000000000D+00 4.989062500000D+01 3.933735284436D-09 7.415144172918D-01
     2.475921064615D-06 6.527431542054D-04 1.171184703708D-05 5.282625883102D+03
     3.744000000000D+05 5.867332220078D-08-4.444692772666D-01-1.084990799427D-07
     9.509318966676D-01 1.182500000000D+02 1.991478207918D-01-6.603132189817D-09
    -7.682462862558D-10 0.000000000000D+00 8.070000000000D+02
     2.000000000000D+00 0.000000000000D+00-4.900000000000D-09-4.900000000000D-09
     3.744000000000D+05 0.000000000000D+00
C29 2021 06 24 08 00 00 4.103587707505D-04 5.251798995687D-12 0.000000000000D+00
     1.000000000000D+00-3.250000000000D+01 4.033382292276D-09-1.093611157134D+00
    -1.632142812014D-06 3.581756027415D-04-2.554152160883D-06 5.282617002487D+03
     3.744000000000D+05 2.700835466385D-08 1.645380048089D+00-1.816079020500D-08
     9.650376804815D-01 4.120937500000D+02 1.514464821413D+00-7.328876705704D-09
    -1.675069773380D-10 0.000000000000D+00 8.070000000000D+02
     2.000000000000D+00 0.000000000000D+00-2.000000000000D-10-2.000000000000D-10
     3.744000000000D+05 0.000000000000D+00
C30 2021 06 24 08 00 00 4.717425908893D-04 1.283417816467D-12 0.000000000000D+00
     1.000000000000D+00-1.959375000000D+01 3.883018886180D-09 5.900119789729D-01
    -9.601935744286D-07 4.969299770892D-04-2.035871148109D-06 5.282619125366D+03
     3.744000000000D+05-2.793967723846D-09 1.645914589578D+00 1.536682248116D-08
     9.649811869741D-01 4.038437500000D+02 6.368908187047D-01-7.268874206359D-09
    -1.410773050075D-10 0.000000000000D+00 8.070000000000D+02
     2.000000000000D+00 0.000000000000D+00-9.800000000000D-09-9.800000000000D-09
     3.744000000000D+05 0.000000000000D+00
C33 2021 06 24 08 00 00-9.382542921230D-04-1.849187469816D-12 0.000000000000D+00
     1.000000000000D+00-2.115625000000D+01 3.620507951546D-09 2.019324085525D+00
    -1.191161572933D-06 5.061116535217D-04 1.050485298038D-05 5.282620494843D+03
     3.744000000000D+05 7.264316082001D-08-2.531329073936D+00 3.119930624962D-08
     9.651298399318D-01 1.496093750000D+02-5.388533387530D-01-6.470626670430D-09
     8.539641424628D-10 0.000000000000D+00 8.070000000000D+02
     2.000000000000D+00 0.000000000000D+00-4.250000000000D-08-4.250000000000D-08
     3.744000000000D+05 0.000000000000D+00
